[{"OBJECT_NAME":"HXMT (HUIYAN)","OBJECT_ID":"2017-034A","EPOCH":"2026-03-02T23:56:39.723072","MEAN_MOTION":15.17356399,"ECCENTRICITY":0.00321699,"INCLINATION":43.0149,"RA_OF_ASC_NODE":53.8741,"ARG_OF_PERICENTER":194.8346,"MEAN_ANOMALY":165.156,"EPHEMERIS_TYPE":0,"CLASSIFICATION_TYPE":"U","NORAD_CAT_ID":42758,"ELEMENT_SET_NO":999,"REV_AT_EPOCH":48152,"BSTAR":0.00030334799,"MEAN_MOTION_DOT":6.009e-5,"MEAN_MOTION_DDOT":0},{"OBJECT_NAME":"SAOCOM 1A","OBJECT_ID":"2018-076A","EPOCH":"2026-03-02T22:36:24.623424","MEAN_MOTION":14.82161354,"ECCENTRICITY":0.0001291,"INCLINATION":97.8883,"RA_OF_ASC_NODE":250.2097,"ARG_OF_PERICENTER":83.7563,"MEAN_ANOMALY":276.3797,"EPHEMERIS_TYPE":0,"CLASSIFICATION_TYPE":"U","NORAD_CAT_ID":43641,"ELEMENT_SET_NO":999,"REV_AT_EPOCH":40036,"BSTAR":0.00013641867,"MEAN_MOTION_DOT":1.034e-5,"MEAN_MOTION_DDOT":0},{"OBJECT_NAME":"H-2A R/B","OBJECT_ID":"2018-084L","EPOCH":"2026-03-02T14:10:58.119744","MEAN_MOTION":15.40984025,"ECCENTRICITY":0.0025913,"INCLINATION":98.8738,"RA_OF_ASC_NODE":277.4639,"ARG_OF_PERICENTER":49.2078,"MEAN_ANOMALY":311.1406,"EPHEMERIS_TYPE":0,"CLASSIFICATION_TYPE":"U","NORAD_CAT_ID":43682,"ELEMENT_SET_NO":999,"REV_AT_EPOCH":40468,"BSTAR":0.00054195,"MEAN_MOTION_DOT":0.0002253,"MEAN_MOTION_DDOT":0},{"OBJECT_NAME":"SAOCOM 1B","OBJECT_ID":"2020-059A","EPOCH":"2026-03-02T23:21:22.397760","MEAN_MOTION":14.82164659,"ECCENTRICITY":0.00014752,"INCLINATION":97.8883,"RA_OF_ASC_NODE":249.3384,"ARG_OF_PERICENTER":79.5694,"MEAN_ANOMALY":280.5686,"EPHEMERIS_TYPE":0,"CLASSIFICATION_TYPE":"U","NORAD_CAT_ID":46265,"ELEMENT_SET_NO":999,"REV_AT_EPOCH":29775,"BSTAR":7.0045422e-5,"MEAN_MOTION_DOT":5.06e-6,"MEAN_MOTION_DDOT":0},{"OBJECT_NAME":"CSS (TIANHE)","OBJECT_ID":"2021-035A","EPOCH":"2026-03-02T19:17:14.095104","MEAN_MOTION":15.60315912,"ECCENTRICITY":0.00066169,"INCLINATION":41.4651,"RA_OF_ASC_NODE":250.0496,"ARG_OF_PERICENTER":230.1207,"MEAN_ANOMALY":129.905,"EPHEMERIS_TYPE":0,"CLASSIFICATION_TYPE":"U","NORAD_CAT_ID":48274,"ELEMENT_SET_NO":999,"REV_AT_EPOCH":27653,"BSTAR":0.00021016754,"MEAN_MOTION_DOT":0.00017409,"MEAN_MOTION_DDOT":0},{"OBJECT_NAME":"COSMOS 2550","OBJECT_ID":"2021-056A","EPOCH":"2026-03-02T23:55:04.069632","MEAN_MOTION":15.3383239,"ECCENTRICITY":0.00083126,"INCLINATION":67.1423,"RA_OF_ASC_NODE":61.1772,"ARG_OF_PERICENTER":268.4981,"MEAN_ANOMALY":91.5222,"EPHEMERIS_TYPE":0,"CLASSIFICATION_TYPE":"U","NORAD_CAT_ID":48865,"ELEMENT_SET_NO":999,"REV_AT_EPOCH":26243,"BSTAR":1.35445e-7,"MEAN_MOTION_DOT":-1.87e-6,"MEAN_MOTION_DDOT":0},{"OBJECT_NAME":"CZ-2C R/B","OBJECT_ID":"2022-058K","EPOCH":"2026-03-02T05:54:04.972896","MEAN_MOTION":15.53608022,"ECCENTRICITY":0.00421533,"INCLINATION":50.1902,"RA_OF_ASC_NODE":356.5623,"ARG_OF_PERICENTER":169.0449,"MEAN_ANOMALY":191.1449,"EPHEMERIS_TYPE":0,"CLASSIFICATION_TYPE":"U","NORAD_CAT_ID":52794,"ELEMENT_SET_NO":999,"REV_AT_EPOCH":20897,"BSTAR":0.00049711634,"MEAN_MOTION_DOT":0.00033239,"MEAN_MOTION_DDOT":0},{"OBJECT_NAME":"CZ-2C R/B","OBJECT_ID":"2022-132E","EPOCH":"2026-03-02T23:07:07.222656","MEAN_MOTION":15.61162408,"ECCENTRICITY":0.00207661,"INCLINATION":97.2954,"RA_OF_ASC_NODE":65.0792,"ARG_OF_PERICENTER":112.6179,"MEAN_ANOMALY":247.7278,"EPHEMERIS_TYPE":0,"CLASSIFICATION_TYPE":"U","NORAD_CAT_ID":54039,"ELEMENT_SET_NO":999,"REV_AT_EPOCH":18932,"BSTAR":0.00053359965,"MEAN_MOTION_DOT":0.00045591,"MEAN_MOTION_DDOT":0},{"OBJECT_NAME":"GSLV R/B","OBJECT_ID":"2022-138AN","EPOCH":"2026-03-02T20:01:46.000416","MEAN_MOTION":14.967133,"ECCENTRICITY":0.00219894,"INCLINATION":87.3885,"RA_OF_ASC_NODE":168.6561,"ARG_OF_PERICENTER":170.5085,"MEAN_ANOMALY":189.6567,"EPHEMERIS_TYPE":0,"CLASSIFICATION_TYPE":"U","NORAD_CAT_ID":54149,"ELEMENT_SET_NO":999,"REV_AT_EPOCH":18290,"BSTAR":0.00040841842,"MEAN_MOTION_DOT":4.713e-5,"MEAN_MOTION_DDOT":0},{"OBJECT_NAME":"XRISM","OBJECT_ID":"2023-137A","EPOCH":"2026-03-02T23:17:44.734560","MEAN_MOTION":15.11405488,"ECCENTRICITY":0.00082076,"INCLINATION":31.0034,"RA_OF_ASC_NODE":327.1198,"ARG_OF_PERICENTER":330.7612,"MEAN_ANOMALY":29.2567,"EPHEMERIS_TYPE":0,"CLASSIFICATION_TYPE":"U","NORAD_CAT_ID":57800,"ELEMENT_SET_NO":999,"REV_AT_EPOCH":13677,"BSTAR":0.00042016909,"MEAN_MOTION_DOT":7.377e-5,"MEAN_MOTION_DDOT":0},{"OBJECT_NAME":"ACS3","OBJECT_ID":"2024-077B","EPOCH":"2026-03-02T19:13:04.745568","MEAN_MOTION":13.89238489,"ECCENTRICITY":0.00547047,"INCLINATION":97.2116,"RA_OF_ASC_NODE":4.4609,"ARG_OF_PERICENTER":95.2616,"MEAN_ANOMALY":265.4793,"EPHEMERIS_TYPE":0,"CLASSIFICATION_TYPE":"U","NORAD_CAT_ID":59588,"ELEMENT_SET_NO":999,"REV_AT_EPOCH":9324,"BSTAR":0.015684127,"MEAN_MOTION_DOT":0.00019327,"MEAN_MOTION_DDOT":0},{"OBJECT_NAME":"SZ-21 MODULE","OBJECT_ID":"2025-246C","EPOCH":"2026-03-02T13:24:56.678976","MEAN_MOTION":15.67907744,"ECCENTRICITY":0.0001469,"INCLINATION":41.4734,"RA_OF_ASC_NODE":247.2373,"ARG_OF_PERICENTER":286.7563,"MEAN_ANOMALY":73.3117,"EPHEMERIS_TYPE":0,"CLASSIFICATION_TYPE":"U","NORAD_CAT_ID":66515,"ELEMENT_SET_NO":999,"REV_AT_EPOCH":1695,"BSTAR":0.00034908,"MEAN_MOTION_DOT":0.00039531,"MEAN_MOTION_DDOT":0}]
